{"fetched_at":"2026-07-22T07:09:49.041Z","source":"https://celestrak.org/NORAD/elements/gp.php?NAME=ICEYE&FORMAT=JSON","constellation":"iceye","records":[{"OBJECT_NAME":"ICEYE-X40","OBJECT_ID":"2024-149CK","EPOCH":"2026-07-21T04:02:34.259712","CLASSIFICATION_TYPE":"U","MEAN_MOTION":14.98101188,"ECCENTRICITY":0.00032719,"INCLINATION":97.68,"RA_OF_ASC_NODE":278.1192,"ARG_OF_PERICENTER":347.2707,"MEAN_ANOMALY":12.8432,"EPHEMERIS_TYPE":0,"NORAD_CAT_ID":60549,"ELEMENT_SET_NO":999,"REV_AT_EPOCH":10516,"BSTAR":0.00015315153,"MEAN_MOTION_DOT":0.00001755,"MEAN_MOTION_DDOT":0},{"OBJECT_NAME":"ICEYE-X49","OBJECT_ID":"2024-247H","EPOCH":"2026-07-21T07:04:54.238944","CLASSIFICATION_TYPE":"U","MEAN_MOTION":15.13481886,"ECCENTRICITY":0.0000363,"INCLINATION":44.9981,"RA_OF_ASC_NODE":175.2014,"ARG_OF_PERICENTER":163.3652,"MEAN_ANOMALY":196.7237,"EPHEMERIS_TYPE":0,"NORAD_CAT_ID":62384,"ELEMENT_SET_NO":999,"REV_AT_EPOCH":8734,"BSTAR":0.00013349843,"MEAN_MOTION_DOT":0.00002173,"MEAN_MOTION_DDOT":0},{"OBJECT_NAME":"ICEYE-X47","OBJECT_ID":"2024-247N","EPOCH":"2026-07-21T04:54:48.716928","CLASSIFICATION_TYPE":"U","MEAN_MOTION":15.13502666,"ECCENTRICITY":0.00007602,"INCLINATION":44.9962,"RA_OF_ASC_NODE":175.2743,"ARG_OF_PERICENTER":29.9955,"MEAN_ANOMALY":330.0966,"EPHEMERIS_TYPE":0,"NORAD_CAT_ID":62389,"ELEMENT_SET_NO":999,"REV_AT_EPOCH":8733,"BSTAR":0.000099428708,"MEAN_MOTION_DOT":0.00001554,"MEAN_MOTION_DDOT":0},{"OBJECT_NAME":"ICEYE-X42","OBJECT_ID":"2025-009CT","EPOCH":"2026-07-21T11:32:42.541152","CLASSIFICATION_TYPE":"U","MEAN_MOTION":14.91835319,"ECCENTRICITY":0.00013247,"INCLINATION":97.7388,"RA_OF_ASC_NODE":280.1771,"ARG_OF_PERICENTER":98.9395,"MEAN_ANOMALY":261.1973,"EPHEMERIS_TYPE":0,"NORAD_CAT_ID":62698,"ELEMENT_SET_NO":999,"REV_AT_EPOCH":8240,"BSTAR":0.00013649718,"MEAN_MOTION_DOT":0.00001322,"MEAN_MOTION_DDOT":0},{"OBJECT_NAME":"ICEYE-X41","OBJECT_ID":"2025-009CV","EPOCH":"2026-07-21T05:30:45.133056","CLASSIFICATION_TYPE":"U","MEAN_MOTION":14.96937286,"ECCENTRICITY":0.00005838,"INCLINATION":97.7059,"RA_OF_ASC_NODE":281.2626,"ARG_OF_PERICENTER":176.5709,"MEAN_ANOMALY":183.5517,"EPHEMERIS_TYPE":0,"NORAD_CAT_ID":62700,"ELEMENT_SET_NO":999,"REV_AT_EPOCH":8250,"BSTAR":0.00022271929,"MEAN_MOTION_DOT":0.00002501,"MEAN_MOTION_DDOT":0},{"OBJECT_NAME":"ICEYE-X45","OBJECT_ID":"2025-009DA","EPOCH":"2026-07-21T04:45:31.722048","CLASSIFICATION_TYPE":"U","MEAN_MOTION":15.00847661,"ECCENTRICITY":0.00010103,"INCLINATION":97.8417,"RA_OF_ASC_NODE":289.1702,"ARG_OF_PERICENTER":78.9443,"MEAN_ANOMALY":281.1894,"EPHEMERIS_TYPE":0,"NORAD_CAT_ID":62705,"ELEMENT_SET_NO":999,"REV_AT_EPOCH":8278,"BSTAR":0.0002395172,"MEAN_MOTION_DOT":0.00002983,"MEAN_MOTION_DDOT":0},{"OBJECT_NAME":"ICEYE-X44","OBJECT_ID":"2025-009DC","EPOCH":"2026-07-21T04:40:45.736320","CLASSIFICATION_TYPE":"U","MEAN_MOTION":14.96186625,"ECCENTRICITY":0.00020581,"INCLINATION":97.7052,"RA_OF_ASC_NODE":280.785,"ARG_OF_PERICENTER":59.9701,"MEAN_ANOMALY":300.1725,"EPHEMERIS_TYPE":0,"NORAD_CAT_ID":62707,"ELEMENT_SET_NO":999,"REV_AT_EPOCH":10502,"BSTAR":0.00012780974,"MEAN_MOTION_DOT":0.00001383,"MEAN_MOTION_DDOT":0},{"OBJECT_NAME":"ICEYE-X48","OBJECT_ID":"2025-052AV","EPOCH":"2026-07-21T15:44:15.953280","CLASSIFICATION_TYPE":"U","MEAN_MOTION":14.98155675,"ECCENTRICITY":0.00043543,"INCLINATION":97.6843,"RA_OF_ASC_NODE":94.3129,"ARG_OF_PERICENTER":88.8035,"MEAN_ANOMALY":271.3687,"EPHEMERIS_TYPE":0,"NORAD_CAT_ID":63253,"ELEMENT_SET_NO":999,"REV_AT_EPOCH":7383,"BSTAR":0.00021962441,"MEAN_MOTION_DOT":0.00002546,"MEAN_MOTION_DDOT":0},{"OBJECT_NAME":"ICEYE-X50","OBJECT_ID":"2025-052AX","EPOCH":"2026-07-21T14:52:24.360096","CLASSIFICATION_TYPE":"U","MEAN_MOTION":14.95375319,"ECCENTRICITY":0.00033957,"INCLINATION":97.6845,"RA_OF_ASC_NODE":93.8479,"ARG_OF_PERICENTER":90.5073,"MEAN_ANOMALY":269.6537,"EPHEMERIS_TYPE":0,"NORAD_CAT_ID":63255,"ELEMENT_SET_NO":999,"REV_AT_EPOCH":7379,"BSTAR":0.000078645302,"MEAN_MOTION_DOT":0.00000812,"MEAN_MOTION_DDOT":0},{"OBJECT_NAME":"ICEYE-X51","OBJECT_ID":"2025-052AZ","EPOCH":"2026-07-21T14:13:01.871328","CLASSIFICATION_TYPE":"U","MEAN_MOTION":15.00892254,"ECCENTRICITY":0.00020743,"INCLINATION":97.762,"RA_OF_ASC_NODE":97.6296,"ARG_OF_PERICENTER":63.0205,"MEAN_ANOMALY":297.123,"EPHEMERIS_TYPE":0,"NORAD_CAT_ID":63257,"ELEMENT_SET_NO":999,"REV_AT_EPOCH":7396,"BSTAR":0.00024575182,"MEAN_MOTION_DOT":0.00003067,"MEAN_MOTION_DDOT":0},{"OBJECT_NAME":"ICEYE-X46","OBJECT_ID":"2025-052BA","EPOCH":"2026-07-21T09:58:36.175008","CLASSIFICATION_TYPE":"U","MEAN_MOTION":14.95377911,"ECCENTRICITY":0.00015267,"INCLINATION":97.6849,"RA_OF_ASC_NODE":93.6472,"ARG_OF_PERICENTER":81.761,"MEAN_ANOMALY":278.3784,"EPHEMERIS_TYPE":0,"NORAD_CAT_ID":63258,"ELEMENT_SET_NO":999,"REV_AT_EPOCH":7376,"BSTAR":0.000075077313,"MEAN_MOTION_DOT":0.00000772,"MEAN_MOTION_DDOT":0},{"OBJECT_NAME":"ICEYE-X54","OBJECT_ID":"2025-135AU","EPOCH":"2026-07-21T13:39:00.876096","CLASSIFICATION_TYPE":"U","MEAN_MOTION":14.94753873,"ECCENTRICITY":0.00025464,"INCLINATION":97.7749,"RA_OF_ASC_NODE":316.6656,"ARG_OF_PERICENTER":165.6805,"MEAN_ANOMALY":194.4488,"EPHEMERIS_TYPE":0,"NORAD_CAT_ID":64570,"ELEMENT_SET_NO":999,"REV_AT_EPOCH":5903,"BSTAR":0.0001712854,"MEAN_MOTION_DOT":0.00001804,"MEAN_MOTION_DDOT":0},{"OBJECT_NAME":"ICEYE-X52","OBJECT_ID":"2025-135AW","EPOCH":"2026-07-21T13:42:34.794720","CLASSIFICATION_TYPE":"U","MEAN_MOTION":14.93666279,"ECCENTRICITY":0.00017797,"INCLINATION":97.7772,"RA_OF_ASC_NODE":316.4485,"ARG_OF_PERICENTER":169.8827,"MEAN_ANOMALY":190.2428,"EPHEMERIS_TYPE":0,"NORAD_CAT_ID":64572,"ELEMENT_SET_NO":999,"REV_AT_EPOCH":5901,"BSTAR":0.00010317895,"MEAN_MOTION_DOT":0.00001034,"MEAN_MOTION_DDOT":0},{"OBJECT_NAME":"ICEYE-X56","OBJECT_ID":"2025-135AY","EPOCH":"2026-07-21T14:50:54.556800","CLASSIFICATION_TYPE":"U","MEAN_MOTION":14.95790501,"ECCENTRICITY":0.00017671,"INCLINATION":97.7774,"RA_OF_ASC_NODE":317.3151,"ARG_OF_PERICENTER":169.8401,"MEAN_ANOMALY":190.2856,"EPHEMERIS_TYPE":0,"NORAD_CAT_ID":64574,"ELEMENT_SET_NO":999,"REV_AT_EPOCH":5907,"BSTAR":0.00020061869,"MEAN_MOTION_DOT":0.0000218,"MEAN_MOTION_DDOT":0},{"OBJECT_NAME":"ICEYE-X57","OBJECT_ID":"2025-135BC","EPOCH":"2026-07-21T22:26:20.677056","CLASSIFICATION_TYPE":"U","MEAN_MOTION":15.00877847,"ECCENTRICITY":0.0002188,"INCLINATION":97.8036,"RA_OF_ASC_NODE":319.5161,"ARG_OF_PERICENTER":55.4667,"MEAN_ANOMALY":304.6763,"EPHEMERIS_TYPE":0,"NORAD_CAT_ID":64578,"ELEMENT_SET_NO":999,"REV_AT_EPOCH":5923,"BSTAR":0.00033846,"MEAN_MOTION_DOT":0.00004246,"MEAN_MOTION_DDOT":0},{"OBJECT_NAME":"ICEYE-X55","OBJECT_ID":"2025-135BF","EPOCH":"2026-07-21T15:04:07.706208","CLASSIFICATION_TYPE":"U","MEAN_MOTION":14.95386684,"ECCENTRICITY":0.00023159,"INCLINATION":97.777,"RA_OF_ASC_NODE":317.1458,"ARG_OF_PERICENTER":208.2841,"MEAN_ANOMALY":151.8255,"EPHEMERIS_TYPE":0,"NORAD_CAT_ID":64581,"ELEMENT_SET_NO":999,"REV_AT_EPOCH":5906,"BSTAR":0.00016432311,"MEAN_MOTION_DOT":0.00001757,"MEAN_MOTION_DDOT":0}]}
