{"epoch":1784710044,"count":18256,"objects":[{"id":"60549","name":"ICEYE-X40","type":"PAYLOAD","l1":"1 60549U 24149CK  26202.16845208  .00001755  00000-0  15315-3 0  9996","l2":"2 60549  97.6800 278.1192 0003272 347.2707  12.8432 14.98101188105164"},{"id":"62384","name":"ICEYE-X49","type":"PAYLOAD","l1":"1 62384U 24247H   26202.29507221  .00002173  00000-0  13350-3 0  9990","l2":"2 62384  44.9981 175.2014 0000363 163.3652 196.7237 15.13481886 87340"},{"id":"62389","name":"ICEYE-X47","type":"PAYLOAD","l1":"1 62389U 24247N   26202.20473052  .00001554  00000-0  99429-4 0  9994","l2":"2 62389  44.9962 175.2743 0000760  29.9955 330.0966 15.13502666 87338"},{"id":"62698","name":"ICEYE-X42","type":"PAYLOAD","l1":"1 62698U 25009CT  26202.48104793  .00001322  00000-0  13650-3 0  9991","l2":"2 62698  97.7388 280.1771 0001325  98.9395 261.1973 14.91835319 82402"},{"id":"62700","name":"ICEYE-X41","type":"PAYLOAD","l1":"1 62700U 25009CV  26202.22968904  .00002501  00000-0  22272-3 0  9999","l2":"2 62700  97.7059 281.2626 0000584 176.5709 183.5517 14.96937286 82503"},{"id":"62705","name":"ICEYE-X45","type":"PAYLOAD","l1":"1 62705U 25009DA  26202.19828382  .00002983  00000-0  23952-3 0  9995","l2":"2 62705  97.8417 289.1702 0001010  78.9443 281.1894 15.00847661 82780"},{"id":"62707","name":"ICEYE-X44","type":"PAYLOAD","l1":"1 62707U 25009DC  26202.19497380  .00001383  00000-0  12781-3 0  9998","l2":"2 62707  97.7052 280.7850 0002058  59.9701 300.1725 14.96186625105024"},{"id":"63253","name":"ICEYE-X48","type":"PAYLOAD","l1":"1 63253U 25052AV  26202.65574020  .00002546  00000-0  21962-3 0  9994","l2":"2 63253  97.6843  94.3129 0004354  88.8035 271.3687 14.98155675 73830"},{"id":"63255","name":"ICEYE-X50","type":"PAYLOAD","l1":"1 63255U 25052AX  26202.61972639  .00000812  00000-0  78645-4 0  9995","l2":"2 63255  97.6845  93.8479 0003396  90.5073 269.6537 14.95375319 73798"},{"id":"63257","name":"ICEYE-X51","type":"PAYLOAD","l1":"1 63257U 25052AZ  26202.59238277  .00003067  00000-0  24575-3 0  9994","l2":"2 63257  97.7620  97.6296 0002074  63.0205 297.1230 15.00892254 73969"},{"id":"63258","name":"ICEYE-X46","type":"PAYLOAD","l1":"1 63258U 25052BA  26202.41569647  .00000772  00000-0  75077-4 0  9998","l2":"2 63258  97.6849  93.6472 0001527  81.7610 278.3784 14.95377911 73767"},{"id":"64570","name":"ICEYE-X54","type":"PAYLOAD","l1":"1 64570U 25135AU  26202.56876014  .00001804  00000-0  17129-3 0  9993","l2":"2 64570  97.7749 316.6656 0002546 165.6805 194.4488 14.94753873 59034"},{"id":"64572","name":"ICEYE-X52","type":"PAYLOAD","l1":"1 64572U 25135AW  26202.57123605  .00001034  00000-0  10318-3 0  9995","l2":"2 64572  97.7772 316.4485 0001780 169.8827 190.2428 14.93666279 59017"},{"id":"64574","name":"ICEYE-X56","type":"PAYLOAD","l1":"1 64574U 25135AY  26202.61868700  .00002180  00000-0  20062-3 0  9994","l2":"2 64574  97.7774 317.3151 0001767 169.8401 190.2856 14.95790501 59073"},{"id":"64578","name":"ICEYE-X57","type":"PAYLOAD","l1":"1 64578U 25135BC  26202.93496154  .00004246  00000-0  33846-3 0  9992","l2":"2 64578  97.8036 319.5161 0002188  55.4667 304.6763 15.00877847 59238"},{"id":"64581","name":"ICEYE-X55","type":"PAYLOAD","l1":"1 64581U 25135BF  26202.62786697  .00001757  00000-0  16432-3 0  9992","l2":"2 64581  97.7770 317.1458 0002316 208.2841 151.8255 14.95386684 59060"}]}